GLOBALSTAR M035 [-]     
1 25851U 99037A   23276.56603694 -.00000072  00000+0 -30796-3 0  9996
2 25851  51.9993   3.4471 0013945  54.9129 318.2261 11.04525975 27461
GLOBALSTAR M032 [-]     
1 25852U 99037B   23276.83264640 -.00000062  00000+0  14576-3 0  9997
2 25852  51.9930 230.9925 0007549 197.2877 162.7666 11.19044801 65113
GLOBALSTAR M051 [-]     
1 25853U 99037C   23276.83645279 -.00000077  00000+0 -13005-3 0  9992
2 25853  51.9769 102.2158 0001689 150.6371 209.4534 11.42192634 61274
GLOBALSTAR M030 [-]     
1 25854U 99037D   23276.46189524 -.00000066  00000+0  18104-3 0  9990
2 25854  51.9882 308.8203 0004285  10.8328 349.2580 11.55092317 78082
GLOBALSTAR M048 [-]     
1 25872U 99041A   23276.55424600 -.00000055  00000+0  40921-3 0  9992
2 25872  51.9407  13.8505 0013467 184.3696 272.1319 11.33839769 54354
GLOBALSTAR M026 [-]     
1 25873U 99041B   23276.91661640 -.00000100  00000+0 -13333-2 0  9998
2 25873  51.9980 127.1883 0001264 349.3401 113.5510 11.06828344 79588
GLOBALSTAR M043 [-]     
1 25874U 99041C   23276.80469771 -.00000082  00000+0 -42365-3 0  9995
2 25874  51.9378  96.0962 0012934 333.7533 125.0514 11.25675134 52784
GLOBALSTAR M028 [-]     
1 25875U 99041D   23276.61347252 -.00000034  00000+0  42800-3 0  9994
2 25875  51.9607 249.4002 0063406 159.2038 201.1422 12.50541932112283
